[Satellite]
VERSION=1.1
NAME=STARLINK-5170
NICKNAME=STARLINK-5170
TLE1=1 54062U 22136M   22321.58334491 -.00036203  00000+0 -63086-3 0  9999
TLE2=2 54062  53.2157  10.5850 0001192 108.7949  24.6760 15.49974090  1309
STATUS=0
